start=new Date('2023-02-18T00:00:00.000Z').valueOf();
sats=[{"MEAN_ELEMENT_THEORY":"SGP4","SEMIMAJOR_AXIS":"6918.011","ARG_OF_PERICENTER":"105.2552","CLASSIFICATION_TYPE":"U","MEAN_MOTION_DOT":"-0.00008858","OBJECT_ID":"2022-049AZ","INCLINATION":"53.2182","DECAY_DATE":null,"GP_ID":"225782548","TLE_LINE2":"2 52498  53.2182   9.5293 0001780 105.2552 254.8637 15.08797419 44032","ECCENTRICITY":"0.00017800","MEAN_MOTION_DDOT":"0.0000000000000","RCS_SIZE":"LARGE","COUNTRY_CODE":"US","TIME_SYSTEM":"UTC","CENTER_NAME":"EARTH","FILE":"3802730","MEAN_MOTION":"15.08797419","EPOCH":"2023-02-17T13:55:57.782496","OBJECT_TYPE":"PAYLOAD","ELEMENT_SET_NO":"999","LAUNCH_DATE":"2022-05-06","PERIOD":"95.440","MEAN_ANOMALY":"254.8637","SITE":"AFETR","TLE_LINE1":"1 52498U 22049AZ  23048.58052989 -.00008858  00000-0 -53973-3 0  9999","REV_AT_EPOCH":"4403","REF_FRAME":"TEME","APOAPSIS":"541.107","PERIAPSIS":"538.644","RA_OF_ASC_NODE":"9.5293","BSTAR":"-0.00053973000000","NORAD_CAT_ID":"52498","OBJECT_NAME":"STARLINK-3925","EPHEMERIS_TYPE":"0"},{"PERIAPSIS":"538.832","APOAPSIS":"540.552","BSTAR":"0.00231350000000","RA_OF_ASC_NODE":"20.3350","EPHEMERIS_TYPE":"0","OBJECT_NAME":"STARLINK-3894","NORAD_CAT_ID":"52499","ELEMENT_SET_NO":"999","EPOCH":"2023-02-17T09:40:15.681792","OBJECT_TYPE":"PAYLOAD","PERIOD":"95.436","LAUNCH_DATE":"2022-05-06","MEAN_ANOMALY":"239.9188","REF_FRAME":"TEME","REV_AT_EPOCH":"4403","TLE_LINE1":"1 52499U 22049BA  23048.40295928  .00036741  00000-0  23135-2 0  9999","SITE":"AFETR","GP_ID":"225804989","DECAY_DATE":null,"RCS_SIZE":"LARGE","COUNTRY_CODE":"US","ECCENTRICITY":"0.00012430","MEAN_MOTION_DDOT":"0.0000000000000","TLE_LINE2":"2 52499  53.2159  20.3350 0001243 120.1927 239.9188 15.08857557 44033","CENTER_NAME":"EARTH","TIME_SYSTEM":"UTC","MEAN_MOTION":"15.08857557","FILE":"3803598","MEAN_ELEMENT_THEORY":"SGP4","SEMIMAJOR_AXIS":"6917.827","CLASSIFICATION_TYPE":"U","ARG_OF_PERICENTER":"120.1927","MEAN_MOTION_DOT":"0.00036741","INCLINATION":"53.2159","OBJECT_ID":"2022-049BA"},{"MEAN_MOTION_DDOT":"0.0000000000000","ECCENTRICITY":"0.00008270","TLE_LINE2":"2 52500  53.2166   9.5484 0000827  67.5008 292.6072 15.08820282 44192","COUNTRY_CODE":"US","RCS_SIZE":"LARGE","DECAY_DATE":null,"GP_ID":"225804987","FILE":"3803598","MEAN_MOTION":"15.08820282","CENTER_NAME":"EARTH","TIME_SYSTEM":"UTC","ARG_OF_PERICENTER":"67.5008","CLASSIFICATION_TYPE":"U","MEAN_ELEMENT_THEORY":"SGP4","SEMIMAJOR_AXIS":"6917.941","OBJECT_ID":"2022-049BB","INCLINATION":"53.2166","MEAN_MOTION_DOT":"0.00005383","PERIAPSIS":"539.234","APOAPSIS":"540.378","NORAD_CAT_ID":"52500","EPHEMERIS_TYPE":"0","OBJECT_NAME":"STARLINK-3866","RA_OF_ASC_NODE":"9.5484","BSTAR":"0.00035625000000","LAUNCH_DATE":"2022-05-06","PERIOD":"95.439","ELEMENT_SET_NO":"999","EPOCH":"2023-02-17T13:50:40.105248","OBJECT_TYPE":"PAYLOAD","TLE_LINE1":"1 52500U 22049BB  23048.57685307  .00005383  00000-0  35625-3 0  9990","SITE":"AFETR","REV_AT_EPOCH":"4419","REF_FRAME":"TEME","MEAN_ANOMALY":"292.6072"},{"MEAN_MOTION":"15.08833390","FILE":"3802730","CENTER_NAME":"EARTH","TIME_SYSTEM":"UTC","COUNTRY_CODE":"US","RCS_SIZE":"LARGE","ECCENTRICITY":"0.00010910","MEAN_MOTION_DDOT":"0.0000000000000","TLE_LINE2":"2 52501  53.2158  20.6430 0001091  77.9709 282.1406 15.08833390 43868","GP_ID":"225782295","DECAY_DATE":null,"INCLINATION":"53.2158","OBJECT_ID":"2022-049BC","MEAN_MOTION_DOT":"-0.00001843","CLASSIFICATION_TYPE":"U","ARG_OF_PERICENTER":"77.9709","MEAN_ELEMENT_THEORY":"SGP4","SEMIMAJOR_AXIS":"6917.901","EPHEMERIS_TYPE":"0","OBJECT_NAME":"STARLINK-3907","NORAD_CAT_ID":"52501","BSTAR":"-0.00009778700000","RA_OF_ASC_NODE":"20.6430","PERIAPSIS":"539.011","APOAPSIS":"540.520","REF_FRAME":"TEME","REV_AT_EPOCH":"4386","TLE_LINE1":"1 52501U 22049BC  23048.33399741 -.00001843  00000-0 -97787-4 0  9996","SITE":"AFETR","MEAN_ANOMALY":"282.1406","PERIOD":"95.438","LAUNCH_DATE":"2022-05-06","ELEMENT_SET_NO":"999","OBJECT_TYPE":"PAYLOAD","EPOCH":"2023-02-17T08:00:57.376224"},{"LAUNCH_DATE":"2022-05-06","PERIOD":"95.438","ELEMENT_SET_NO":"999","EPOCH":"2023-02-17T08:55:16.391136","OBJECT_TYPE":"PAYLOAD","TLE_LINE1":"1 52502U 22049BD  23048.37171749  .00007788  00000-0  50688-3 0  9997","SITE":"AFETR","REF_FRAME":"TEME","REV_AT_EPOCH":"4400","MEAN_ANOMALY":"294.6520","PERIAPSIS":"539.159","APOAPSIS":"540.339","NORAD_CAT_ID":"52502","EPHEMERIS_TYPE":"0","OBJECT_NAME":"STARLINK-3912","RA_OF_ASC_NODE":"10.4616","BSTAR":"0.00050688000000","ARG_OF_PERICENTER":"65.4561","CLASSIFICATION_TYPE":"U","MEAN_ELEMENT_THEORY":"SGP4","SEMIMAJOR_AXIS":"6917.884","INCLINATION":"53.2187","OBJECT_ID":"2022-049BD","MEAN_MOTION_DOT":"0.00007788","MEAN_MOTION_DDOT":"0.0000000000000","ECCENTRICITY":"0.00008530","TLE_LINE2":"2 52502  53.2187  10.4616 0000853  65.4561 294.6520 15.08838933 44007","COUNTRY_CODE":"US","RCS_SIZE":"LARGE","DECAY_DATE":null,"GP_ID":"225782049","FILE":"3802730","MEAN_MOTION":"15.08838933","CENTER_NAME":"EARTH","TIME_SYSTEM":"UTC"},{"PERIAPSIS":"539.122","APOAPSIS":"540.390","EPHEMERIS_TYPE":"0","OBJECT_NAME":"STARLINK-3861","NORAD_CAT_ID":"52503","BSTAR":"0.00022929000000","RA_OF_ASC_NODE":"10.4565","PERIOD":"95.438","LAUNCH_DATE":"2022-05-06","ELEMENT_SET_NO":"999","OBJECT_TYPE":"PAYLOAD","EPOCH":"2023-02-17T08:59:11.929632","REV_AT_EPOCH":"4400","REF_FRAME":"TEME","TLE_LINE1":"1 52503U 22049BE  23048.37444363  .00003363  00000-0  22929-3 0  9995","SITE":"AFETR","MEAN_ANOMALY":"277.3105","COUNTRY_CODE":"US","RCS_SIZE":"LARGE","MEAN_MOTION_DDOT":"0.0000000000000","ECCENTRICITY":"0.00009160","TLE_LINE2":"2 52503  53.2182  10.4565 0000916  82.7992 277.3105 15.08836504 44005","GP_ID":"225780799","DECAY_DATE":null,"MEAN_MOTION":"15.08836504","FILE":"3802730","CENTER_NAME":"EARTH","TIME_SYSTEM":"UTC","CLASSIFICATION_TYPE":"U","ARG_OF_PERICENTER":"82.7992","MEAN_ELEMENT_THEORY":"SGP4","SEMIMAJOR_AXIS":"6917.891","INCLINATION":"53.2182","OBJECT_ID":"2022-049BE","MEAN_MOTION_DOT":"0.00003363"},{"MEAN_MOTION":"15.08836103","FILE":"3804075","CENTER_NAME":"EARTH","TIME_SYSTEM":"UTC","COUNTRY_CODE":"US","RCS_SIZE":"LARGE","MEAN_MOTION_DDOT":"0.0000000000000","ECCENTRICITY":"0.00015060","TLE_LINE2":"2 52533  53.2158  98.4227 0001506  90.3685 269.7480 15.08836103 42983","GP_ID":"225837561","DECAY_DATE":null,"INCLINATION":"53.2158","OBJECT_ID":"2022-051A","MEAN_MOTION_DOT":"0.00024033","CLASSIFICATION_TYPE":"U","ARG_OF_PERICENTER":"90.3685","SEMIMAJOR_AXIS":"6917.892","MEAN_ELEMENT_THEORY":"SGP4","EPHEMERIS_TYPE":"0","OBJECT_NAME":"STARLINK-3951","NORAD_CAT_ID":"52533","BSTAR":"0.00152310000000","RA_OF_ASC_NODE":"98.4227","PERIAPSIS":"538.715","APOAPSIS":"540.799","REV_AT_EPOCH":"4298","REF_FRAME":"TEME","TLE_LINE1":"1 52533U 22051A   23048.82712341  .00024033  00000-0  15231-2 0  9999","SITE":"AFWTR","MEAN_ANOMALY":"269.7480","PERIOD":"95.438","LAUNCH_DATE":"2022-05-13","ELEMENT_SET_NO":"999","OBJECT_TYPE":"PAYLOAD","EPOCH":"2023-02-17T19:51:03.462624"},{"NORAD_CAT_ID":"52534","OBJECT_NAME":"STARLINK-3952","EPHEMERIS_TYPE":"0","RA_OF_ASC_NODE":"98.3943","BSTAR":"0.00149080000000","APOAPSIS":"540.671","PERIAPSIS":"538.983","SITE":"AFWTR","TLE_LINE1":"1 52534U 22051B   23048.83353145  .00023500  00000-0  14908-2 0  9992","REV_AT_EPOCH":"4305","REF_FRAME":"TEME","MEAN_ANOMALY":"270.2941","LAUNCH_DATE":"2022-05-13","PERIOD":"95.439","OBJECT_TYPE":"PAYLOAD","EPOCH":"2023-02-17T20:00:17.117280","ELEMENT_SET_NO":"999","FILE":"3803629","MEAN_MOTION":"15.08813300","TIME_SYSTEM":"UTC","CENTER_NAME":"EARTH","TLE_LINE2":"2 52534  53.2156  98.3943 0001220  89.8190 270.2941 15.08813300 43055","MEAN_MOTION_DDOT":"0.0000000000000","ECCENTRICITY":"0.00012200","RCS_SIZE":"LARGE","COUNTRY_CODE":"US","DECAY_DATE":null,"GP_ID":"225805999","OBJECT_ID":"2022-051B","INCLINATION":"53.2156","MEAN_MOTION_DOT":"0.00023500","ARG_OF_PERICENTER":"89.8190","CLASSIFICATION_TYPE":"U","SEMIMAJOR_AXIS":"6917.962","MEAN_ELEMENT_THEORY":"SGP4"},{"REV_AT_EPOCH":"4305","REF_FRAME":"TEME","TLE_LINE1":"1 52535U 22051C   23048.82984518 -.00004554  00000-0 -26831-3 0  9995","SITE":"AFWTR","MEAN_ANOMALY":"277.6387","PERIOD":"95.438","LAUNCH_DATE":"2022-05-13","ELEMENT_SET_NO":"999","EPOCH":"2023-02-17T19:54:58.623552","OBJECT_TYPE":"PAYLOAD","EPHEMERIS_TYPE":"0","OBJECT_NAME":"STARLINK-3958","NORAD_CAT_ID":"52535","BSTAR":"-0.00026831000000","RA_OF_ASC_NODE":"98.4092","PERIAPSIS":"539.133","APOAPSIS":"540.443","OBJECT_ID":"2022-051C","INCLINATION":"53.2152","MEAN_MOTION_DOT":"-0.00004554","CLASSIFICATION_TYPE":"U","ARG_OF_PERICENTER":"82.4713","SEMIMAJOR_AXIS":"6917.923","MEAN_ELEMENT_THEORY":"SGP4","MEAN_MOTION":"15.08825947","FILE":"3803629","CENTER_NAME":"EARTH","TIME_SYSTEM":"UTC","RCS_SIZE":"LARGE","COUNTRY_CODE":"US","MEAN_MOTION_DDOT":"0.0000000000000","ECCENTRICITY":"0.00009470","TLE_LINE2":"2 52535  53.2152  98.4092 0000947  82.4713 277.6387 15.08825947 43058","GP_ID":"225806002","DECAY_DATE":null},{"OBJECT_ID":"2022-051D","INCLINATION":"53.2152","MEAN_MOTION_DOT":"0.00009186","ARG_OF_PERICENTER":"78.3000","CLASSIFICATION_TYPE":"U","SEMIMAJOR_AXIS":"6917.957","MEAN_ELEMENT_THEORY":"SGP4","FILE":"3804075","MEAN_MOTION":"15.08814826","CENTER_NAME":"EARTH","TIME_SYSTEM":"UTC","MEAN_MOTION_DDOT":"0.0000000000000","ECCENTRICITY":"0.00009370","TLE_LINE2":"2 52536  53.2152  98.4324 0000937  78.3000 281.8097 15.08814826 42989","COUNTRY_CODE":"US","RCS_SIZE":"LARGE","GP_ID":"225836811","DECAY_DATE":null,"TLE_LINE1":"1 52536U 22051D   23048.82616865  .00009186  00000-0  59491-3 0  9995","SITE":"AFWTR","REF_FRAME":"TEME","REV_AT_EPOCH":"4298","MEAN_ANOMALY":"281.8097","LAUNCH_DATE":"2022-05-13","PERIOD":"95.439","ELEMENT_SET_NO":"999","EPOCH":"2023-02-17T19:49:40.971360","OBJECT_TYPE":"PAYLOAD","NORAD_CAT_ID":"52536","EPHEMERIS_TYPE":"0","OBJECT_NAME":"STARLINK-3964","RA_OF_ASC_NODE":"98.4324","BSTAR":"0.00059491000000","PERIAPSIS":"539.174","APOAPSIS":"540.471"}];
